TOMORROW-S2             
1 60485U 24149T   26068.75188364  .00008133  00000+0  27683-3 0  9990
2 60485  97.3857 150.0385 0001648 234.3331 125.7757 15.30674935 86869
STARLINK-33727          
1 63719U 25087Y   26068.69432025  .00028693  00000+0  97596-3 0  9997
2 63719  53.1582 219.2984 0000586  92.8431 267.2637 15.30239099 49202
