[{"OBJECT_NAME":"TOMORROW-S2","OBJECT_ID":"2024-149T","EPOCH":"2026-03-09T18:02:42.746496","MEAN_MOTION":15.30674935,"ECCENTRICITY":0.0001648,"INCLINATION":97.3857,"RA_OF_ASC_NODE":150.0385,"ARG_OF_PERICENTER":234.3331,"MEAN_ANOMALY":125.7757,"EPHEMERIS_TYPE":0,"CLASSIFICATION_TYPE":"U","NORAD_CAT_ID":60485,"ELEMENT_SET_NO":999,"REV_AT_EPOCH":8686,"BSTAR":0.00027683033,"MEAN_MOTION_DOT":8.133e-5,"MEAN_MOTION_DDOT":0},{"OBJECT_NAME":"STARLINK-33727","OBJECT_ID":"2025-087Y","EPOCH":"2026-03-09T16:39:49.271328","MEAN_MOTION":15.30239099,"ECCENTRICITY":5.862e-5,"INCLINATION":53.1582,"RA_OF_ASC_NODE":219.2984,"ARG_OF_PERICENTER":92.8431,"MEAN_ANOMALY":267.2637,"EPHEMERIS_TYPE":0,"CLASSIFICATION_TYPE":"U","NORAD_CAT_ID":63719,"ELEMENT_SET_NO":999,"REV_AT_EPOCH":4920,"BSTAR":0.00097595897,"MEAN_MOTION_DOT":0.00028693,"MEAN_MOTION_DDOT":0}]
